FM112
1 41184C 15081F   19033.98761801  .00000000  00000-0  00000-0 0 21982
2 41184  46.9996 336.1703 0002227 237.9916 122.0752 14.54759966244225
